[{"OBJECT_NAME":"STARLINK-35434","OBJECT_ID":"2025-245N","EPOCH":"2026-03-09T20:57:17.623296","MEAN_MOTION":15.30207836,"ECCENTRICITY":7.782e-5,"INCLINATION":53.1567,"RA_OF_ASC_NODE":283.1123,"ARG_OF_PERICENTER":94.0216,"MEAN_ANOMALY":266.0874,"EPHEMERIS_TYPE":0,"CLASSIFICATION_TYPE":"U","NORAD_CAT_ID":66246,"ELEMENT_SET_NO":999,"REV_AT_EPOCH":2107,"BSTAR":0.00082494665,"MEAN_MOTION_DOT":0.00024159,"MEAN_MOTION_DDOT":0},{"OBJECT_NAME":"FREGAT DEB","OBJECT_ID":"2000-015B","EPOCH":"2026-03-08T09:39:47.719296","MEAN_MOTION":6.47132094,"ECCENTRICITY":0.44741481,"INCLINATION":64.5643,"RA_OF_ASC_NODE":70.6633,"ARG_OF_PERICENTER":179.0928,"MEAN_ANOMALY":182.2763,"EPHEMERIS_TYPE":0,"CLASSIFICATION_TYPE":"U","NORAD_CAT_ID":27763,"ELEMENT_SET_NO":999,"REV_AT_EPOCH":50546,"BSTAR":0.0041375133,"MEAN_MOTION_DOT":0.0001798,"MEAN_MOTION_DDOT":0}]
